[{"OBJECT_NAME":"ADRAS-J","OBJECT_ID":"2024-034A","EPOCH":"2026-03-09T21:58:53.298624","MEAN_MOTION":15.13266815,"ECCENTRICITY":0.00758128,"INCLINATION":98.223,"RA_OF_ASC_NODE":88.3954,"ARG_OF_PERICENTER":99.4078,"MEAN_ANOMALY":261.5731,"EPHEMERIS_TYPE":0,"CLASSIFICATION_TYPE":"U","NORAD_CAT_ID":58992,"ELEMENT_SET_NO":999,"REV_AT_EPOCH":11235,"BSTAR":0.00021470617,"MEAN_MOTION_DOT":4.016e-5,"MEAN_MOTION_DDOT":0},{"OBJECT_NAME":"STARLINK-35009","OBJECT_ID":"2025-194R","EPOCH":"2026-03-09T13:31:58.436256","MEAN_MOTION":15.05657862,"ECCENTRICITY":0.0001481,"INCLINATION":97.6013,"RA_OF_ASC_NODE":284.3456,"ARG_OF_PERICENTER":69.5792,"MEAN_ANOMALY":290.5594,"EPHEMERIS_TYPE":0,"CLASSIFICATION_TYPE":"U","NORAD_CAT_ID":65449,"ELEMENT_SET_NO":999,"REV_AT_EPOCH":2963,"BSTAR":0.00028714,"MEAN_MOTION_DOT":4.086e-5,"MEAN_MOTION_DDOT":0}]
